HORIZONS-2              
1 32388C 07063B   23051.00000000 -.00000311  00000-0  00000-0 0   516
2 32388   0.0001 149.8731 0001987 194.9877  90.9742  1.00270030    15
HORIZONS-2          [PM]
1 32388C 07063B   23051.97031250 -.00000141  00000-0  00000-0 0   514
2 32388   0.0001 148.2534 0002023 188.1566  89.6887  1.00273204    12
GALAXY 18 (G-18)        
1 32951C 08024A   23046.93339120  .00000115  00000-0  00000-0 0   469
2 32951   0.0112  97.8368 0003071 248.3064  12.5246  1.00270768    17
GALAXY 18 (G-18)        
1 32951C 08024A   23051.00000000  .00000115  00000-0  00000-0 0   511
2 32951   0.0206 110.7669 0003033 236.6355  39.2452  1.00270769    17
GALAXY 18 (G-18)    [PM]
1 32951C 08024A   23051.19097222  .00000339  00000-0  00000-0 0   511
2 32951   0.0420 275.9407 0002920  72.9764 106.6695  1.00269149    16
INTELSAT 25 (IS-25)     
1 33153C 08034A   23046.93339120 -.00000140  00000-0  00000-0 0   464
2 33153   0.0049  31.0148 0002679 307.1902 111.9629  1.00271684    12
INTELSAT 25 (IS-25) [PM]
1 33153C 08034A   23049.87951389 -.00000136  00000-0  00000-0 0   495
2 33153   0.0264   8.8343 0002671 287.4845 137.3510  1.00271022    15
INTELSAT 25 (IS-25)     
1 33153C 08034A   23051.00000000 -.00000813  00000-0  00000-0 0   513
2 33153   0.0476 302.7239 0002700  36.6346 138.7899  1.00270774    11
GALAXY 19 (G-19)        
1 33376C 08045A   23046.93339120 -.00000049  00000-0  00000-0 0   461
2 33376   0.0017  99.6436 0002890 240.4668  44.5517  1.00270890    12
GALAXY 19 (G-19)        
1 33376C 08045A   23051.00000000 -.00000049  00000-0  00000-0 0   513
2 33376   0.0112 117.3384 0002865 223.9492  71.3421  1.00269424    14
GALAXY 19 (G-19)    [PM]
1 33376C 08045A   23051.11788194  .00000380  00000-0  00000-0 0   519
2 33376   0.0055 178.6850 0002967 160.2425 116.2548  1.00271895    14
INTELSAT 14 (IS-14)     
1 36097C 09064A   23046.93339120 -.00000171  00000-0  00000-0 0   462
2 36097   0.0001  51.8913 0002228 284.9235  99.8356  1.00273491    10
INTELSAT 14 (IS-14)     
1 36097C 09064A   23051.00000000 -.00000276  00000-0  00000-0 0   510
2 36097   0.0009 127.8382 0002221 210.4522 126.3545  1.00270770    11
INTELSAT 14 (IS-14) [PM]
1 36097C 09064A   23053.88262732 -.00000181  00000-0  00000-0 0   537
2 36097   0.0056 117.2667 0002442 213.6709  94.2841  1.00273373    13
INTELSAT 15 (IS-15)     
1 36106C 09067A   23046.93339120 -.00000095  00000-0  00000-0 0   461
2 36106   0.0137  61.7210 0002203 281.3528 223.7454  1.00276734    10
INTELSAT 15 (IS-15)     
1 36106C 09067A   23051.00000000 -.00000095  00000-0  00000-0 0   513
2 36106   0.0180  87.8817 0002111 248.6358 258.2876  1.00270134    14
INTELSAT 15 (IS-15) [PM]
1 36106C 09067A   23051.63175926 -.00000061  00000-0  00000-0 0   515
2 36106   0.0047 207.5605 0002091 130.4406 124.8569  1.00268406    17
INTELSAT 16 (IS-16)     
1 36397C 10006A   23046.93339120 -.00000155  00000-0  00000-0 0   465
2 36397   0.0136  70.5227 0001937 279.5847  55.3493  1.00272497    17
INTELSAT 16 (IS-16)     
1 36397C 10006A   23051.00000000 -.00000155  00000-0  00000-0 0   517
2 36397   0.0199  91.9259 0001891 256.4866  85.0303  1.00270258    15
INTELSAT 16 (IS-16) [PM]
1 36397C 10006A   23051.08549769 -.00000152  00000-0  00000-0 0   512
2 36397   0.0341 275.1476 0001763  71.9814 117.1787  1.00270180    19
INTELSAT 17 (IS-17)     
1 37238C 10065B   23046.93339120  .00000089  00000-0  00000-0 0   460
2 37238   0.0161 142.3516 0002358 195.0594 210.2568  1.00271590    16
INTELSAT 17 (IS-17) [PM]
1 37238C 10065B   23050.16748843  .00000089  00000-0  00000-0 0   501
2 37238   0.0232 184.6266 0002391 154.1016 296.4053  1.00269222    12
INTELSAT 17 (IS-17)     
1 37238C 10065B   23051.00000000  .00000089  00000-0  00000-0 0   512
2 37238   0.0214 180.5524 0002453 156.8393 238.2615  1.00269452    13
INTELSAT NEW DAWN   [PM]
1 37392C 11016A   23045.80677083  .00000261  00000-0  00000-0 0   457
2 37392   0.0184 201.3864 0000543 268.7568 357.6032  1.00270721    14
INTELSAT NEW DAWN       
1 37392C 11016A   23046.93339120  .00000246  00000-0  00000-0 0   463
2 37392   0.0107 167.7287 0000620 296.0761  50.6325  1.00270937    12
INTELSAT NEW DAWN       
1 37392C 11016A   23051.00000000  .00000246  00000-0  00000-0 0   515
2 37392   0.0133 150.3347 0000672 309.5030  82.5904  1.00271961    17
INTELSAT 18 (IS-18)     
1 37834C 11056A   23046.93339120  .00000142  00000-0  00000-0 0   463
2 37834   0.0220  31.5680 0001835 314.1846 315.9149  1.00269766    18
INTELSAT 18 (IS-18) [PM]
1 37834C 11056A   23050.34766204  .00000004  00000-0  00000-0 0   502
2 37834   0.0200  20.8395 0001787 323.1938 110.1210  1.00271013    10
INTELSAT 18 (IS-18)     
1 37834C 11056A   23051.00000000  .00000593  00000-0  00000-0 0   515
2 37834   0.0192  26.7435 0001757 316.2779 346.6178  1.00270988    12
INTELSAT 22 (IS-22)     
1 38098C 12011A   23046.93339120  .00000032  00000-0  00000-0 0   466
2 38098   0.0091 100.6240 0002407 234.4140 218.7299  1.00271600    10
INTELSAT 22 (IS-22)     
1 38098C 12011A   23051.00000000  .00000032  00000-0  00000-0 0   518
2 38098   0.0187 113.4630 0002403 221.7010 246.5904  1.00270813    19
INTELSAT 22 (IS-22) [PM]
1 38098C 12011A   23051.14777778  .00000297  00000-0  00000-0 0   519
2 38098   0.0469 293.1166 0002405  38.7295 303.2531  1.00268765    15
INTELSAT 19 (IS-19)     
1 38356C 12030A   23046.93339120  .00000033  00000-0  00000-0 0   465
2 38356   0.0013 102.8558 0003097 240.1004 304.7100  1.00270965    16
INTELSAT 19 (IS-19)     
1 38356C 12030A   23051.00000000  .00000033  00000-0  00000-0 0   517
2 38356   0.0108 118.3977 0003059 225.5575 331.6948  1.00270453    17
INTELSAT 19 (IS-19) [PM]
1 38356C 12030A   23051.88541667 -.00000055  00000-0  00000-0 0   517
2 38356   0.0007 155.0788 0003148 187.8173 292.3742  1.00270537    14
INTELSAT 20 (IS-20) [PM]
1 38740C 12043A   23046.18699074  .00000066  00000-0  00000-0 0   466
2 38740   0.0441 216.8319 0001928   8.0242  55.8702  1.00271782    15
INTELSAT 20 (IS-20)     
1 38740C 12043A   23047.00000000  .00000066  00000-0  00000-0 0   474
2 38740   0.0176 120.1729 0002047  37.5859  56.4507  1.00269701    14
INTELSAT 20 (IS-20)     
1 38740C 12043A   23051.00000000  .00000066  00000-0  00000-0 0   514
2 38740   0.0162 140.0447 0002018  25.1988  52.9035  1.00269008    18
INTELSAT 21 (IS-21)     
1 38749C 12045A   23046.93339120 -.00000320  00000-0  00000-0 0   467
2 38749   0.0000  61.8141 0001656 270.9795  90.8634  1.00272923    18
INTELSAT 21 (IS-21)     
1 38749C 12045A   23051.00000000 -.00000302  00000-0  00000-0 0   519
2 38749   0.0010 118.0395 0001638 214.0315 119.5767  1.00270471    14
INTELSAT 21 (IS-21) [PM]
1 38749C 12045A   23053.09875000  .00000045  00000-0  00000-0 0   535
2 38749   0.0047 112.8744 0001975 216.0827 160.2991  1.00272727    16
INTELSAT 23 (IS-23)     
1 38867C 12057A   23046.93339120 -.00000256  00000-0  00000-0 0   469
2 38867   0.0449 271.9620 0001058  84.9529  71.7740  1.00274382    13
INTELSAT 23 (IS-23) [PM]
1 38867C 12057A   23050.90545139 -.00000278  00000-0  00000-0 0   509
2 38867   0.0504 282.6625 0000924  32.8284 106.9849  1.00282074    18
INTELSAT 23 (IS-23)     
1 38867C 12057A   23051.00000000 -.00000202  00000-0  00000-0 0   512
2 38867   0.0498 280.4101 0000934  35.4449 140.7553  1.00282028    15
INTELSAT 30 (IS-30) [PM]
1 40271C 14062A   23046.26046296 -.00000059  00000-0  00000-0 0   465
2 40271   0.0411 247.7051 0002518 318.4465 297.5432  1.00272926    17
INTELSAT 30 (IS-30)     
1 40271C 14062A   23047.00000000 -.00000136  00000-0  00000-0 0   478
2 40271   0.0036  97.1177 0002508  10.7059 302.8314  1.00270905    10
INTELSAT 30 (IS-30)     
1 40271C 14062A   23051.00000000 -.00000060  00000-0  00000-0 0   514
2 40271   0.0020 132.9668 0002280 344.0080 297.6244  1.00269364    10
INTELSAT 34 (IS-34)     
1 40874C 15039A   23047.00000000 -.00000280  00000-0  00000-0 0   472
2 40874   0.0001  66.9746 0000378  92.9193 290.3093  1.00269427    13
INTELSAT 34 (IS-34) [PM]
1 40874C 15039A   23047.23824074 -.00000257  00000-0  00000-0 0   476
2 40874   0.0212 260.3050 0000551 356.0900 279.8108  1.00273303    15
INTELSAT 34 (IS-34)     
1 40874C 15039A   23051.00000000  .00000146  00000-0  00000-0 0   512
2 40874   0.0151 210.8816 0000702 342.9965 260.2760  1.00270385    15
INTELSAT 31 (IS-31)     
1 41581C 16035A   23047.00000000  .00000006  00000-0  00000-0 0   470
2 41581   0.0269 224.0614 0002051 335.6333 210.9651  1.00269894    15
INTELSAT 31 (IS-31) [PM]
1 41581C 16035A   23047.32322917 -.00000065  00000-0  00000-0 0   475
2 41581   0.0475 281.8050 0002154  33.2245 212.3099  1.00272388    10
INTELSAT 31 (IS-31)     
1 41581C 16035A   23051.00000000 -.00000061  00000-0  00000-0 0   512
2 41581   0.0254 208.2243 0002255 357.0840 209.2920  1.00269748    16
INTELSAT 36 (IS-36) [PM]
1 41747C 16053A   23046.33263889  .00000060  00000-0  00000-0 0   464
2 41747   0.0418 248.3441 0001103 244.9271 200.0278  1.00271919    18
INTELSAT 36 (IS-36)     
1 41747C 16053A   23047.00000000  .00000066  00000-0  00000-0 0   470
2 41747   0.0106  59.3283 0001074 321.4828 193.3936  1.00270361    17
INTELSAT 36 (IS-36)     
1 41747C 16053A   23051.00000000  .00000065  00000-0  00000-0 0   519
2 41747   0.0000  93.0031 0000875 271.6971 213.4475  1.00269828    17
INTELSAT 33E        [PM]
1 41748C 16053B   23046.43866898  .00000066  00000-0  00000-0 0   461
2 41748   0.0074   6.3896 0001273 335.9532  20.7173  1.00272024    11
INTELSAT 33E            
1 41748C 16053B   23046.93339120  .00000137  00000-0  00000-0 0   468
2 41748   0.0074  11.3046 0001265 331.7337 198.6102  1.00271968    15
INTELSAT 33E            
1 41748C 16053B   23051.00000000  .00000139  00000-0  00000-0 0   512
2 41748   0.0001 152.6330 0001292 191.3060 225.7077  1.00272610    11
